[{"OBJECT_NAME":"STARLINK-32354","OBJECT_ID":"2024-207W","EPOCH":"2026-03-09T00:06:57.098592","MEAN_MOTION":15.27599767,"ECCENTRICITY":0.00019829,"INCLINATION":43.0041,"RA_OF_ASC_NODE":289.3865,"ARG_OF_PERICENTER":289.2672,"MEAN_ANOMALY":70.7966,"EPHEMERIS_TYPE":0,"CLASSIFICATION_TYPE":"U","NORAD_CAT_ID":61932,"ELEMENT_SET_NO":999,"REV_AT_EPOCH":7506,"BSTAR":0.001195832,"MEAN_MOTION_DOT":0.00032811,"MEAN_MOTION_DDOT":0},{"OBJECT_NAME":"JINJUSAT-1B","OBJECT_ID":"2025-052A","EPOCH":"2026-03-09T15:55:38.242848","MEAN_MOTION":15.30194857,"ECCENTRICITY":0.00055504,"INCLINATION":97.4113,"RA_OF_ASC_NODE":325.4613,"ARG_OF_PERICENTER":82.193,"MEAN_ANOMALY":277.9941,"EPHEMERIS_TYPE":0,"CLASSIFICATION_TYPE":"U","NORAD_CAT_ID":63210,"ELEMENT_SET_NO":999,"REV_AT_EPOCH":5486,"BSTAR":0.00068430401,"MEAN_MOTION_DOT":0.00019955,"MEAN_MOTION_DDOT":0}]
